NORAD_CAT_ID,OBJECT_NAME,OBJECT_TYPE,EPOCH,MEAN_MOTION,ECCENTRICITY,INCLINATION,RA_OF_ASC_NODE,ARG_OF_PERICENTER,MEAN_ANOMALY,BSTAR,MEAN_MOTION_DOT,MEAN_MOTION_DDOT,TLE_LINE0,TLE_LINE1,TLE_LINE2,SEMIMAJOR_AXIS,PERIOD,APOGEE,PERIGEE,DECAYED
52479.0,STARLINK-3878,PAYLOAD,2023-03-20 05:42:18,15.0883281,0.0001099,53.2142,241.903,88.4614,271.6504,-8.0306e-05,-1.565e-05,0.0,0 STARLINK-3878,1 52479U 22049AE  23079.23771369 -.00001565  00000-0 -80306-4 0  9993,2 52479  53.2142 241.9030 0001099  88.4614 271.6504 15.08832810 48682,6917.902,95.438,540.528,539.007,0.0
52479.0,STARLINK-3878,PAYLOAD,2023-03-20 12:03:51,15.08838981,0.0001204,53.2141,240.7137,86.1079,274.005,0.00025525,3.777e-05,0.0,0 STARLINK-3878,1 52479U 22049AE  23079.50267417  .00003777  00000-0  25525-3 0  9993,2 52479  53.2141 240.7137 0001204  86.1079 274.0050 15.08838981 49807,6917.884,95.438,540.581,538.916,0.0
52479.0,STARLINK-3878,PAYLOAD,2023-03-20 16:50:00,15.08846516,0.0001168,53.2143,239.8216,86.0479,274.0647,0.00055449,8.549e-05,0.0,0 STARLINK-3878,1 52479U 22049AE  23079.70139296  .00008549  00000-0  55449-3 0  9998,2 52479  53.2143 239.8216 0001168  86.0479 274.0647 15.08846516 49836,6917.86,95.437,540.533,538.917,0.0
52479.0,STARLINK-3878,PAYLOAD,2023-03-20 21:36:09,15.08858595,0.0001176,53.2144,238.9292,83.8854,276.2272,0.0010532,0.00016522,0.0,0 STARLINK-3878,1 52479U 22049AE  23079.90011132  .00016522  00000-0  10532-2 0  9991,2 52479  53.2144 238.9292 0001176  83.8854 276.2272 15.08858595 48783,6917.824,95.436,540.502,538.875,0.0
52479.0,STARLINK-3878,PAYLOAD,2023-03-20 23:11:32,15.08864598,0.0001161,53.2144,238.6319,82.5937,277.5187,0.0013237,0.00020856,0.0,0 STARLINK-3878,1 52479U 22049AE  23079.96635030  .00020856  00000-0  13237-2 0  9996,2 52479  53.2144 238.6319 0001161  82.5937 277.5187 15.08864598 49872,6917.805,95.436,540.473,538.867,0.0
52479.0,STARLINK-3878,PAYLOAD,2023-03-22 05:23:52,15.08863681,0.0001382,53.2153,232.9809,122.6874,237.4251,0.0013188,0.00020777,0.0,0 STARLINK-3878,1 52479U 22049AE  23081.22490912  .00020777  00000-0  13188-2 0  9993,2 52479  53.2153 232.9809 0001382 122.6874 237.4251 15.08863681 48984,6917.808,95.436,540.629,538.717,0.0
52479.0,STARLINK-3878,PAYLOAD,2023-03-22 13:20:48,15.08838836,0.0001233,53.2156,231.495,107.4116,252.7011,0.0016349,0.00025826,0.0,0 STARLINK-3878,1 52479U 22049AE  23081.55611182  .00025826  00000-0  16349-2 0  9995,2 52479  53.2156 231.4950 0001233 107.4116 252.7011 15.08838836 49038,6917.884,95.438,540.602,538.896,0.0
52479.0,STARLINK-3878,PAYLOAD,2023-03-22 16:31:34,15.08848087,0.0001227,53.2157,230.9007,101.6733,258.4397,0.0018092,0.00028629,0.0,0 STARLINK-3878,1 52479U 22049AE  23081.68859098  .00028629  00000-0  18092-2 0  9990,2 52479  53.2157 230.9007 0001227 101.6733 258.4397 15.08848087 50132,6917.856,95.437,540.569,538.872,0.0
52479.0,STARLINK-3878,PAYLOAD,2023-03-23 13:11:35,15.0884393,9.96e-05,53.2162,227.0351,86.3159,273.7947,0.0010316,0.0001617,0.0,0 STARLINK-3878,1 52479U 22049AE  23082.54971551  .00016170  00000-0  10316-2 0  9994,2 52479  53.2162 227.0351 0000996  86.3159 273.7947 15.08843930 49186,6917.868,95.437,540.422,539.044,0.0
52479.0,STARLINK-3878,PAYLOAD,2023-03-23 14:46:58,15.08841548,0.0001266,53.2146,226.7363,103.3999,256.7134,0.00044402,6.786e-05,0.0,0 STARLINK-3878,1 52479U 22049AE  23082.61595449  .00006786  00000-0  44402-3 0  9996,2 52479  53.2146 226.7363 0001266 103.3999 256.7134 15.08841548 50274,6917.876,95.437,540.616,538.865,0.0
52479.0,STARLINK-3878,PAYLOAD,2023-03-23 16:22:21,15.08848296,0.0001129,53.2153,226.44,83.7379,276.3742,0.00063897,9.898e-05,0.0,0 STARLINK-3878,1 52479U 22049AE  23082.68219421  .00009898  00000-0  63897-3 0  9992,2 52479  53.2153 226.4400 0001129  83.7379 276.3742 15.08848296 50283,6917.855,95.437,540.501,538.939,0.0
52479.0,STARLINK-3878,PAYLOAD,2023-03-24 05:05:26,15.08890342,0.0001216,53.2158,224.0616,78.9821,281.1308,0.002326,0.00036976,0.0,0 STARLINK-3878,1 52479U 22049AE  23083.21210720  .00036976  00000-0  23260-2 0  9991,2 52479  53.2158 224.0616 0001216  78.9821 281.1308 15.08890342 49285,6917.727,95.434,540.433,538.75,0.0
52479.0,STARLINK-3878,PAYLOAD,2023-03-24 13:02:20,15.08923587,0.0001235,53.2162,222.5743,93.0739,267.0394,0.0036232,0.00057983,0.0,0 STARLINK-3878,1 52479U 22049AE  23083.54329256  .00057983  00000-0  36232-2 0  9996,2 52479  53.2162 222.5743 0001235  93.0739 267.0394 15.08923587 50414,6917.625,95.432,540.344,538.636,0.0
52479.0,STARLINK-3878,PAYLOAD,2023-03-24 20:59:14,15.08947071,0.0001198,53.2162,221.0881,89.8077,270.3052,0.0029549,0.00047193,0.0,0 STARLINK-3878,1 52479U 22049AE  23083.87447234  .00047193  00000-0  29549-2 0  9994,2 52479  53.2162 221.0881 0001198  89.8077 270.3052 15.08947071 50464,6917.553,95.431,540.247,538.589,0.0
52479.0,STARLINK-3878,PAYLOAD,2023-03-25 01:45:25,15.08787807,0.0001654,53.216,220.1958,85.7907,274.3274,-0.0059832,-0.00094135,0.0,0 STARLINK-3878,1 52479U 22049AE  23084.07321013 -.00094135  00000-0 -59832-2 0  9991,2 52479  53.2160 220.1958 0001654  85.7907 274.3274 15.08787807 49413,6918.04,95.441,541.049,538.761,0.0
52479.0,STARLINK-3878,PAYLOAD,2023-03-25 12:53:09,15.08737732,0.0001157,53.2158,218.1141,92.5458,267.5666,0.0034348,0.00054647,0.0,0 STARLINK-3878,1 52479U 22049AE  23084.53691841  .00054647  00000-0  34348-2 0  9998,2 52479  53.2158 218.1141 0001157  92.5458 267.5666 15.08737732 49484,6918.193,95.444,540.858,539.258,0.0
52479.0,STARLINK-3878,PAYLOAD,2023-03-25 20:50:07,15.08754528,0.0001209,53.2158,216.628,100.0562,260.0567,0.0020741,0.00032798,0.0,0 STARLINK-3878,1 52479U 22049AE  23084.86813869  .00032798  00000-0  20741-2 0  9995,2 52479  53.2158 216.6280 0001209 100.0562 260.0567 15.08754528 49536,6918.142,95.443,540.843,539.17,0.0
52479.0,STARLINK-3878,PAYLOAD,2023-03-25 22:25:30,15.08768144,0.0001217,53.2158,216.3305,97.1987,262.9143,0.0026083,0.00041385,0.0,0 STARLINK-3878,1 52479U 22049AE  23084.93438149  .00041385  00000-0  26083-2 0  9994,2 52479  53.2158 216.3305 0001217  97.1987 262.9143 15.08768144 50629,6918.1,95.442,540.807,539.123,0.0
52479.0,STARLINK-3878,PAYLOAD,2023-03-26 03:11:39,15.08815887,0.0001254,53.2158,215.4389,107.3924,252.7205,0.0037825,0.00060386,0.0,0 STARLINK-3878,1 52479U 22049AE  23085.13310183  .00060386  00000-0  37825-2 0  9992,2 52479  53.2158 215.4389 0001254 107.3924 252.7205 15.08815887 49572,6917.954,95.439,540.687,538.952,0.0
52479.0,STARLINK-3878,PAYLOAD,2023-03-26 22:16:16,15.08891793,0.0001202,53.2151,211.8704,109.6145,250.4977,0.0020426,0.00032416,0.0,0 STARLINK-3878,1 52479U 22049AE  23085.92796774  .00032416  00000-0  20426-2 0  9995,2 52479  53.2151 211.8704 0001202 109.6145 250.4977 15.08891793 50774,6917.722,95.434,540.419,538.756,0.0
52479.0,STARLINK-3878,PAYLOAD,2023-03-27 03:02:25,15.08860832,0.0001111,53.2151,210.9784,98.3865,261.7253,0.00026607,3.952e-05,0.0,0 STARLINK-3878,1 52479U 22049AE  23086.12668979  .00003952  00000-0  26607-3 0  9994,2 52479  53.2151 210.9784 0001111  98.3865 261.7253 15.08860832 49729,6917.817,95.436,540.45,538.913,0.0
52479.0,STARLINK-3878,PAYLOAD,2023-03-27 14:10:07,15.08867266,0.0001054,53.2148,208.8965,93.5675,266.5438,0.0014462,0.0002282,0.0,0 STARLINK-3878,1 52479U 22049AE  23086.59036559  .00022820  00000-0  14462-2 0  9998,2 52479  53.2148 208.8965 0001054  93.5675 266.5438 15.08867266 50878,6917.797,95.436,540.391,538.933,0.0
52479.0,STARLINK-3878,PAYLOAD,2023-03-27 22:07:03,15.08844243,0.0001172,53.2147,207.4096,70.4558,289.656,-8.5322e-06,-4.24e-06,0.0,0 STARLINK-3878,1 52479U 22049AE  23086.92156567 -.00000424  00000-0 -85322-5 0  9991,2 52479  53.2147 207.4096 0001172  70.4558 289.6560 15.08844243 49849,6917.867,95.437,540.543,538.922,0.0
52479.0,STARLINK-3878,PAYLOAD,2023-03-28 14:00:54,15.08859617,0.0001129,53.2145,204.4362,70.0628,290.0486,0.0017497,0.00027683,0.0,0 STARLINK-3878,1 52479U 22049AE  23087.58396363  .00027683  00000-0  17497-2 0  9993,2 52479  53.2145 204.4362 0001129  70.0628 290.0486 15.08859617 51023,6917.82,95.436,540.466,538.904,0.0
52479.0,STARLINK-3878,PAYLOAD,2023-03-28 20:22:26,15.08879744,0.0001179,53.2146,203.2468,65.3946,294.7169,0.0024482,0.00038933,0.0,0 STARLINK-3878,1 52479U 22049AE  23087.84891890  .00038933  00000-0  24482-2 0  9999,2 52479  53.2146 203.2468 0001179  65.3946 294.7169 15.08879744 51069,6917.759,95.435,540.44,538.808,0.0
52479.0,STARLINK-3878,PAYLOAD,2023-03-28 23:33:13,15.08838975,0.0001965,53.2147,202.6524,50.051,310.0654,0.00037989,5.763e-05,0.0,0 STARLINK-3878,1 52479U 22049AE  23087.98140714  .00005763  00000-0  37989-3 0  9998,2 52479  53.2147 202.6524 0001965  50.0510 310.0654 15.08838975 50002,6917.884,95.438,541.108,538.389,0.0
52479.0,STARLINK-3878,PAYLOAD,2023-03-29 12:16:18,15.08860542,0.0001136,53.2149,200.2733,70.796,289.3155,0.0016974,0.00026845,0.0,0 STARLINK-3878,1 52479U 22049AE  23088.51132100  .00026845  00000-0  16974-2 0  9992,2 52479  53.2149 200.2733 0001136  70.7960 289.3155 15.08860542 50085,6917.818,95.436,540.468,538.897,0.0
52479.0,STARLINK-3878,PAYLOAD,2023-03-29 21:48:37,15.08831164,0.0001675,53.215,198.4887,62.5215,297.5947,-0.00052362,-8.61e-05,0.0,0 STARLINK-3878,1 52479U 22049AE  23088.90876322 -.00008610  00000-0 -52362-3 0  9990,2 52479  53.2150 198.4887 0001675  62.5215 297.5947 15.08831164 50140,6917.907,95.438,540.931,538.614,0.0
52479.0,STARLINK-3878,PAYLOAD,2023-03-29 23:24:00,15.08840635,0.0001607,53.2151,198.1916,49.8048,310.3085,0.00021264,3.098e-05,0.0,0 STARLINK-3878,1 52479U 22049AE  23088.97500222  .00003098  00000-0  21264-3 0  9990,2 52479  53.2151 198.1916 0001607  49.8048 310.3085 15.08840635 50159,6917.878,95.438,540.855,538.632,0.0
52479.0,STARLINK-3878,PAYLOAD,2023-03-30 20:04:00,15.08875599,0.0001175,53.2155,194.326,87.4386,272.674,0.0029522,0.00047056,0.0,0 STARLINK-3878,1 52479U 22049AE  23089.83611974  .00047056  00000-0  29522-2 0  9999,2 52479  53.2155 194.3260 0001175  87.4386 272.6740 15.08875599 50285,6917.772,95.435,540.449,538.824,0.0
